[{"OBJECT_NAME":"JILIN-1 GAOFEN 3D06","OBJECT_ID":"2022-046D","EPOCH":"2026-03-09T20:32:42.708768","MEAN_MOTION":15.77506946,"ECCENTRICITY":0.00026293,"INCLINATION":97.4988,"RA_OF_ASC_NODE":185.9829,"ARG_OF_PERICENTER":243.9141,"MEAN_ANOMALY":116.1854,"EPHEMERIS_TYPE":0,"CLASSIFICATION_TYPE":"U","NORAD_CAT_ID":52391,"ELEMENT_SET_NO":999,"REV_AT_EPOCH":21494,"BSTAR":0.0011303209,"MEAN_MOTION_DOT":0.00190664,"MEAN_MOTION_DDOT":0},{"OBJECT_NAME":"STARLINK-36756","OBJECT_ID":"2026-032W","EPOCH":"2026-03-09T21:53:16.589184","MEAN_MOTION":15.7527509,"ECCENTRICITY":9.159e-5,"INCLINATION":97.2843,"RA_OF_ASC_NODE":255.4874,"ARG_OF_PERICENTER":102.7886,"MEAN_ANOMALY":257.3482,"EPHEMERIS_TYPE":0,"CLASSIFICATION_TYPE":"U","NORAD_CAT_ID":67817,"ELEMENT_SET_NO":999,"REV_AT_EPOCH":481,"BSTAR":0.0015459296,"MEAN_MOTION_DOT":0.00237869,"MEAN_MOTION_DDOT":0}]
